OBJECT C                
1 57582U 23117C   24315.14017527  .00025892  00000+0  11907-2 0  9998
2 57582  97.4720  25.4706 0010716 140.3624 219.8397 15.20276672 69324
